{"type":"FeatureCollection","features":[{"type":"Feature","properties":{"name":"Roma","kind":"comune"},"geometry":{"type":"Polygon","coordinates":[[[12.23444,41.74002],[12.23775,41.73825],[12.24067,41.73896],[12.24493,41.73639],[12.2456,41.73758],[12.24235,41.73759],[12.2409,41.73932],[12.2522,41.73682],[12.24989,41.73616],[12.24628,41.73739],[12.24602,41.73605],[12.25377,41.73667],[12.25492,41.73533],[12.25642,41.73581],[12.25715,41.73458],[12.25742,41.73537],[12.25923,41.73408],[12.26072,41.73439],[12.28395,41.72613],[12.30286,41.71749],[12.30482,41.7181],[12.31603,41.71378],[12.3506,41.69726],[12.3713,41.68595],[12.39148,41.67327],[12.41594,41.65564],[12.45145,41.68172],[12.4668,41.68752],[12.48868,41.69045],[12.49394,41.69223],[12.49525,41.69414],[12.49991,41.69097],[12.50405,41.69021],[12.50917,41.68647],[12.51482,41.68847],[12.52462,41.69596],[12.53644,41.69821],[12.53578,41.70008],[12.53931,41.70074],[12.53944,41.70209],[12.54348,41.70392],[12.5466,41.70783],[12.55315,41.71155],[12.56784,41.71159],[12.57473,41.71446],[12.57796,41.70857],[12.58629,41.69934],[12.58972,41.69787],[12.59215,41.69408],[12.60014,41.68991],[12.60285,41.69096],[12.60072,41.69255],[12.60546,41.6981],[12.60345,41.70051],[12.61299,41.70911],[12.6045,41.70661],[12.60305,41.70843],[12.60414,41.71062],[12.60348,41.712],[12.60186,41.71164],[12.5993,41.71609],[12.60107,41.71669],[12.60039,41.71981],[12.5977,41.72114],[12.5928,41.72055],[12.59029,41.72712],[12.59659,41.72604],[12.59606,41.73002],[12.59354,41.73042],[12.59258,41.73276],[12.59628,41.73345],[12.59928,41.73609],[12.59978,41.73903],[12.59327,41.74077],[12.58466,41.73973],[12.58461,41.7421],[12.58701,41.74583],[12.589,41.74598],[12.58988,41.74856],[12.58334,41.75337],[12.58869,41.75526],[12.59396,41.75596],[12.59515,41.75512],[12.59682,41.75861],[12.58365,41.7596],[12.58491,41.76468],[12.58839,41.76931],[12.58834,41.77266],[12.59007,41.77597],[12.58873,41.77656],[12.5909,41.78204],[12.58975,41.78254],[12.5905,41.78316],[12.58988,41.78442],[12.59141,41.78631],[12.59292,41.78579],[12.59459,41.78691],[12.59785,41.79059],[12.59802,41.7914],[12.59445,41.79254],[12.59884,41.79739],[12.59447,41.7996],[12.58846,41.80875],[12.59338,41.81201],[12.58383,41.82016],[12.58655,41.82159],[12.59144,41.82054],[12.60469,41.80782],[12.60831,41.80897],[12.61198,41.80849],[12.61506,41.80707],[12.61676,41.80459],[12.61963,41.80573],[12.6199,41.80783],[12.62277,41.80486],[12.62384,41.80522],[12.62283,41.80817],[12.62861,41.8068],[12.6319,41.80435],[12.63001,41.80335],[12.63431,41.80187],[12.63291,41.80096],[12.63816,41.79811],[12.63799,41.79641],[12.64074,41.79595],[12.64295,41.79778],[12.64354,41.79674],[12.64193,41.79594],[12.64461,41.79681],[12.64513,41.79381],[12.65196,41.79128],[12.65346,41.79218],[12.65184,41.79607],[12.65311,41.79644],[12.63678,41.80361],[12.63801,41.8073],[12.63703,41.80894],[12.63847,41.80999],[12.63092,41.81739],[12.62731,41.81898],[12.62607,41.82123],[12.63138,41.82416],[12.62921,41.82563],[12.63084,41.82883],[12.64088,41.82156],[12.64396,41.82253],[12.64485,41.82082],[12.65161,41.81616],[12.66096,41.81834],[12.65807,41.82354],[12.65465,41.82269],[12.65374,41.82465],[12.65129,41.82561],[12.64726,41.82505],[12.6385,41.83098],[12.64064,41.83243],[12.64193,41.83126],[12.64317,41.83175],[12.64475,41.83415],[12.65349,41.83161],[12.65152,41.83521],[12.6521,41.83792],[12.65024,41.83958],[12.65189,41.84531],[12.64975,41.84846],[12.65123,41.85019],[12.65507,41.84756],[12.65977,41.84105],[12.66347,41.84104],[12.66222,41.8434],[12.66387,41.84447],[12.65871,41.84963],[12.65385,41.85244],[12.65893,41.8533],[12.66499,41.85175],[12.6686,41.84797],[12.67247,41.85169],[12.67597,41.85223],[12.68262,41.84943],[12.68391,41.84613],[12.6822,41.84235],[12.68273,41.83885],[12.68367,41.83885],[12.68427,41.84204],[12.6861,41.84372],[12.68789,41.83924],[12.69073,41.84008],[12.69022,41.84342],[12.6866,41.84427],[12.68563,41.84563],[12.68925,41.84571],[12.69364,41.84372],[12.69642,41.83822],[12.69761,41.83814],[12.69688,41.84254],[12.70155,41.84257],[12.70555,41.83924],[12.70742,41.83367],[12.71084,41.83511],[12.71191,41.83805],[12.71542,41.83906],[12.71529,41.84086],[12.71655,41.84072],[12.71792,41.83758],[12.7242,41.83739],[12.72746,41.82767],[12.73248,41.82979],[12.73314,41.82852],[12.74262,41.83136],[12.74216,41.8325],[12.74053,41.83212],[12.73956,41.83392],[12.73811,41.84271],[12.73672,41.8427],[12.734,41.84746],[12.72749,41.84959],[12.72734,41.85221],[12.7207,41.85594],[12.71943,41.8592],[12.71539,41.85936],[12.70591,41.86497],[12.70364,41.87462],[12.69915,41.88232],[12.69941,41.88731],[12.69746,41.89057],[12.70524,41.88855],[12.70535,41.89055],[12.72004,41.88715],[12.72835,41.88646],[12.73182,41.88892],[12.73323,41.89158],[12.73685,41.89334],[12.73563,41.89925],[12.73686,41.89971],[12.74131,41.89792],[12.77632,41.91195],[12.78159,41.90913],[12.78207,41.90782],[12.78422,41.90757],[12.78443,41.90641],[12.78715,41.90609],[12.78895,41.90459],[12.79284,41.90455],[12.79817,41.90095],[12.79941,41.90109],[12.79953,41.90012],[12.80066,41.90051],[12.80051,41.89965],[12.80193,41.90023],[12.80182,41.89896],[12.80673,41.89428],[12.81854,41.88487],[12.8187,41.88278],[12.82665,41.87757],[12.83029,41.87683],[12.839,41.87208],[12.8422,41.86784],[12.84612,41.86714],[12.84658,41.86988],[12.84765,41.87018],[12.84668,41.87274],[12.8555,41.8718],[12.85576,41.87317],[12.84798,41.87735],[12.84259,41.87873],[12.84637,41.88387],[12.85107,41.88597],[12.84791,41.88843],[12.84366,41.88885],[12.84515,41.89079],[12.84326,41.89343],[12.83862,41.89125],[12.8351,41.89247],[12.83331,41.89091],[12.82933,41.89063],[12.819,41.89406],[12.81491,41.89663],[12.81505,41.89792],[12.81269,41.8981],[12.8078,41.90107],[12.79905,41.90283],[12.79574,41.90477],[12.79729,41.90731],[12.79918,41.90722],[12.80046,41.90972],[12.80704,41.909],[12.8079,41.91467],[12.80636,41.91695],[12.78849,41.92285],[12.77986,41.92409],[12.77521,41.92624],[12.77208,41.92944],[12.76922,41.92563],[12.76224,41.92725],[12.76229,41.92557],[12.75976,41.92608],[12.75711,41.92491],[12.75383,41.92185],[12.75057,41.92659],[12.74632,41.92946],[12.74403,41.9307],[12.74131,41.93031],[12.73571,41.93334],[12.73013,41.93252],[12.72955,41.93003],[12.72713,41.9276],[12.71949,41.93141],[12.71704,41.92976],[12.71066,41.93172],[12.71007,41.93336],[12.70728,41.93234],[12.70573,41.93507],[12.7007,41.9377],[12.6923,41.93311],[12.69148,41.9361],[12.68689,41.93593],[12.6856,41.93498],[12.68547,41.93304],[12.68244,41.93206],[12.68253,41.93058],[12.67947,41.93107],[12.67787,41.93304],[12.67496,41.93287],[12.67176,41.93144],[12.67229,41.92787],[12.6695,41.92645],[12.66757,41.92722],[12.66798,41.92867],[12.66341,41.93141],[12.66015,41.93212],[12.65605,41.93134],[12.65443,41.93532],[12.65585,41.94227],[12.64509,41.94181],[12.64482,41.9453],[12.64605,41.9484],[12.64294,41.94884],[12.64297,41.9515],[12.64186,41.95236],[12.64341,41.95736],[12.63533,41.95719],[12.62742,41.9588],[12.6202,41.96248],[12.62011,41.96665],[12.61561,41.97112],[12.61194,41.97093],[12.61596,41.97941],[12.61865,41.99032],[12.61023,41.99437],[12.60205,41.99642],[12.59638,42.00144],[12.60409,42.00422],[12.60265,42.01037],[12.60479,42.01205],[12.60866,42.01174],[12.6077,42.01483],[12.60424,42.01514],[12.60396,42.01876],[12.6026,42.02001],[12.60574,42.0215],[12.60813,42.01995],[12.61273,42.02044],[12.61304,42.02634],[12.61482,42.02933],[12.60767,42.03106],[12.59921,42.03689],[12.59026,42.04076],[12.58681,42.04454],[12.58305,42.04618],[12.58004,42.05103],[12.5795,42.05548],[12.57812,42.05485],[12.57104,42.0582],[12.57018,42.06052],[12.56663,42.06216],[12.56698,42.06533],[12.56269,42.06759],[12.56295,42.07714],[12.55806,42.07721],[12.55214,42.07319],[12.54764,42.07295],[12.54661,42.07583],[12.54424,42.07704],[12.53508,42.07124],[12.53383,42.06596],[12.52589,42.07216],[12.52542,42.06999],[12.52254,42.06679],[12.51454,42.0698],[12.50447,42.06941],[12.49633,42.06584],[12.49641,42.0532],[12.49489,42.05285],[12.49303,42.05898],[12.49381,42.06219],[12.49261,42.06548],[12.48748,42.06876],[12.48603,42.07461],[12.48413,42.07691],[12.47723,42.07579],[12.47525,42.07474],[12.47575,42.07153],[12.4767,42.0703],[12.47892,42.07011],[12.48303,42.06331],[12.47997,42.06101],[12.46287,42.06147],[12.45349,42.05851],[12.45572,42.05627],[12.4566,42.0524],[12.45305,42.0432],[12.4537,42.04284],[12.45163,42.04156],[12.45106,42.04312],[12.44642,42.04463],[12.44592,42.04631],[12.42948,42.04451],[12.42765,42.05223],[12.42238,42.05299],[12.42154,42.05473],[12.41871,42.05341],[12.41382,42.05322],[12.40813,42.05923],[12.40425,42.05948],[12.41052,42.05291],[12.41368,42.04287],[12.41935,42.03808],[12.42307,42.03874],[12.42458,42.03719],[12.42416,42.03466],[12.4289,42.0299],[12.42932,42.02635],[12.42847,42.02469],[12.42383,42.02649],[12.42446,42.02992],[12.42346,42.031],[12.41172,42.03164],[12.41049,42.03312],[12.40578,42.0331],[12.40425,42.0359],[12.39373,42.04094],[12.3921,42.04018],[12.39083,42.04236],[12.39113,42.04455],[12.38879,42.04622],[12.38227,42.05561],[12.37675,42.05458],[12.37319,42.05527],[12.37346,42.08021],[12.38053,42.08096],[12.38544,42.08321],[12.38347,42.08397],[12.38464,42.08484],[12.39052,42.08589],[12.39223,42.08753],[12.39284,42.09107],[12.39121,42.0933],[12.3915,42.0954],[12.3876,42.09524],[12.3844,42.09804],[12.38032,42.09846],[12.37575,42.10095],[12.37057,42.10031],[12.36834,42.09851],[12.3684,42.0974],[12.36273,42.09916],[12.359,42.09768],[12.35727,42.09937],[12.35734,42.10147],[12.34378,42.10388],[12.34077,42.10126],[12.34127,42.09673],[12.33972,42.09471],[12.33373,42.09325],[12.33024,42.08899],[12.32799,42.08794],[12.32136,42.09034],[12.32142,42.08778],[12.31659,42.0859],[12.32047,42.0783],[12.31922,42.07726],[12.32199,42.07459],[12.31543,42.07036],[12.31149,42.06198],[12.30767,42.0591],[12.29981,42.06017],[12.29769,42.06148],[12.29368,42.06039],[12.29705,42.05431],[12.2763,42.06195],[12.2612,42.05955],[12.26247,42.05833],[12.26164,42.05748],[12.26264,42.05588],[12.26028,42.05313],[12.26124,42.05276],[12.26068,42.04727],[12.26362,42.04415],[12.26316,42.04269],[12.26442,42.04085],[12.26217,42.03091],[12.26278,42.02907],[12.26123,42.0256],[12.26156,42.02317],[12.26318,42.02188],[12.26351,42.01838],[12.24295,42.01724],[12.24239,42.01432],[12.24431,42.00886],[12.24257,41.99871],[12.24585,41.9945],[12.24561,41.98862],[12.24903,41.98149],[12.25171,41.9787],[12.25165,41.97624],[12.24898,41.97269],[12.25519,41.97252],[12.25738,41.97468],[12.26217,41.97469],[12.26392,41.97618],[12.26356,41.97054],[12.26832,41.969],[12.26943,41.96721],[12.27551,41.96683],[12.28333,41.96859],[12.28617,41.9648],[12.2889,41.96384],[12.29437,41.96593],[12.29708,41.96369],[12.30016,41.9649],[12.30453,41.96384],[12.30092,41.96121],[12.30109,41.95781],[12.29851,41.9539],[12.29734,41.9478],[12.29337,41.94396],[12.29261,41.94189],[12.28688,41.93837],[12.28362,41.93368],[12.28056,41.93237],[12.27103,41.92425],[12.26812,41.91807],[12.26432,41.91329],[12.26413,41.90871],[12.26138,41.9076],[12.26038,41.90303],[12.25646,41.89646],[12.24871,41.89074],[12.24092,41.8891],[12.23792,41.88698],[12.23696,41.88474],[12.23851,41.881],[12.24911,41.87744],[12.25258,41.87239],[12.25363,41.87242],[12.26005,41.86572],[12.2622,41.86272],[12.2632,41.85613],[12.26481,41.85311],[12.3072,41.81211],[12.30805,41.81039],[12.30657,41.80883],[12.3168,41.7979],[12.30603,41.79734],[12.2975,41.7904],[12.2875,41.78918],[12.28143,41.78429],[12.27879,41.77751],[12.27835,41.76825],[12.28052,41.76298],[12.28646,41.75757],[12.28592,41.75587],[12.28041,41.75486],[12.27305,41.751],[12.25857,41.74692],[12.25134,41.74407],[12.25212,41.74381],[12.24426,41.74295],[12.24599,41.74262],[12.23447,41.74005],[12.23444,41.74002]]]}},{"type":"Feature","properties":{"name":"Firenze","kind":"comune"},"geometry":{"type":"Polygon","coordinates":[[[11.14976,43.78695],[11.15024,43.78578],[11.15462,43.78563],[11.15164,43.78117],[11.1548,43.77916],[11.15193,43.77686],[11.15431,43.77476],[11.17198,43.7671],[11.17471,43.7664],[11.17548,43.7671],[11.17979,43.7643],[11.18942,43.76727],[11.19197,43.76362],[11.19298,43.76478],[11.19456,43.76414],[11.20013,43.76101],[11.19978,43.7601],[11.20275,43.75912],[11.19856,43.75695],[11.20117,43.75328],[11.20661,43.75097],[11.2091,43.74511],[11.21348,43.7431],[11.20891,43.74176],[11.2069,43.74254],[11.20378,43.74078],[11.20402,43.73798],[11.20649,43.73479],[11.20666,43.73141],[11.20748,43.73212],[11.2103,43.73011],[11.21134,43.72666],[11.21992,43.72741],[11.22165,43.72665],[11.22421,43.72743],[11.22337,43.73029],[11.2266,43.73063],[11.22875,43.72985],[11.23357,43.73044],[11.23568,43.72853],[11.24377,43.72587],[11.24758,43.72752],[11.24841,43.7303],[11.25313,43.73318],[11.2566,43.73511],[11.26138,43.73463],[11.26556,43.73752],[11.26774,43.7406],[11.27154,43.74203],[11.27374,43.74077],[11.2817,43.74337],[11.29015,43.73969],[11.29429,43.74024],[11.30542,43.73825],[11.30545,43.73938],[11.30283,43.73961],[11.30236,43.74094],[11.30483,43.74159],[11.30404,43.74372],[11.30549,43.7443],[11.30674,43.74714],[11.30584,43.75272],[11.30696,43.75667],[11.31092,43.75647],[11.31476,43.75952],[11.31901,43.75907],[11.3214,43.76142],[11.31857,43.76316],[11.33232,43.76964],[11.33547,43.77508],[11.33687,43.77493],[11.33822,43.77722],[11.33677,43.77819],[11.33683,43.78019],[11.33415,43.78124],[11.3389,43.7857],[11.33412,43.78831],[11.3335,43.79064],[11.32742,43.79622],[11.32443,43.79566],[11.31981,43.79041],[11.31962,43.79119],[11.31367,43.79123],[11.31035,43.78565],[11.30681,43.78292],[11.29981,43.78124],[11.29744,43.78256],[11.29349,43.79396],[11.28484,43.80122],[11.27902,43.80323],[11.28017,43.80818],[11.28247,43.80826],[11.28585,43.81284],[11.29161,43.81608],[11.2935,43.82007],[11.2992,43.82463],[11.29783,43.82842],[11.28994,43.83292],[11.28762,43.83102],[11.28615,43.83422],[11.28679,43.83546],[11.28034,43.83379],[11.27784,43.83171],[11.27764,43.82626],[11.26932,43.82719],[11.26883,43.82857],[11.2665,43.82855],[11.26517,43.8309],[11.26028,43.8341],[11.2513,43.83518],[11.24694,43.83301],[11.24712,43.83098],[11.24495,43.83093],[11.24274,43.82536],[11.23912,43.82384],[11.23367,43.82892],[11.22813,43.82313],[11.22246,43.82213],[11.21576,43.81901],[11.20501,43.808],[11.19408,43.81308],[11.18188,43.79974],[11.15669,43.80306],[11.15361,43.79935],[11.15677,43.79817],[11.15599,43.79572],[11.15192,43.78879],[11.14977,43.78701],[11.14976,43.78695]]]}},{"type":"Feature","properties":{"name":"Venezia","kind":"comune"},"geometry":{"type":"Polygon","coordinates":[[[12.16683,45.49988],[12.16902,45.50014],[12.17173,45.49874],[12.17951,45.50674],[12.18156,45.50583],[12.17154,45.49581],[12.1724,45.49432],[12.17588,45.4936],[12.18247,45.48698],[12.18001,45.48368],[12.1776,45.47693],[12.18058,45.47561],[12.17795,45.46772],[12.18117,45.46526],[12.18901,45.4636],[12.18526,45.46074],[12.18478,45.45771],[12.18084,45.45793],[12.17921,45.45296],[12.18364,45.45105],[12.18507,45.44884],[12.18889,45.44929],[12.1921,45.44803],[12.19219,45.4436],[12.19457,45.44162],[12.19832,45.441],[12.19974,45.43814],[12.20289,45.43596],[12.2127,45.43414],[12.21447,45.43212],[12.22158,45.42864],[12.2215,45.4274],[12.22811,45.42824],[12.22961,45.42739],[12.24147,45.4272],[12.25361,45.41971],[12.26015,45.41777],[12.24749,45.39577],[12.26613,45.39641],[12.26567,45.3601],[12.24308,45.32555],[12.24899,45.32702],[12.25733,45.32449],[12.25968,45.3275],[12.26423,45.32944],[12.29579,45.33232],[12.29938,45.31456],[12.29872,45.31191],[12.29978,45.30603],[12.27507,45.23652],[12.29082,45.23273],[12.31417,45.23125],[12.31438,45.23388],[12.30512,45.23434],[12.30252,45.2364],[12.30022,45.23656],[12.2985,45.24051],[12.29783,45.24618],[12.30028,45.24992],[12.29946,45.25709],[12.30075,45.25851],[12.29982,45.25865],[12.30086,45.25865],[12.30242,45.26582],[12.30244,45.2718],[12.30365,45.27384],[12.3042,45.28037],[12.31275,45.30423],[12.31416,45.30586],[12.31398,45.30787],[12.31581,45.30988],[12.31488,45.3101],[12.32374,45.32799],[12.32453,45.32881],[12.33556,45.32673],[12.34516,45.32918],[12.34348,45.33416],[12.32981,45.33733],[12.32904,45.34219],[12.3297,45.34904],[12.33275,45.35606],[12.33472,45.35784],[12.33609,45.3575],[12.33428,45.35812],[12.33521,45.36074],[12.33833,45.36462],[12.34054,45.36394],[12.33839,45.36469],[12.34275,45.37042],[12.34383,45.37032],[12.34343,45.37137],[12.34533,45.37078],[12.34348,45.37147],[12.34789,45.37871],[12.34899,45.37959],[12.35103,45.37896],[12.34919,45.37962],[12.34949,45.38064],[12.35138,45.38206],[12.35109,45.38301],[12.35189,45.38276],[12.35158,45.38368],[12.35238,45.38347],[12.35206,45.38442],[12.35285,45.38416],[12.35209,45.38446],[12.35331,45.38488],[12.35249,45.38516],[12.35374,45.38557],[12.35292,45.38587],[12.35466,45.38697],[12.35383,45.38727],[12.35511,45.38766],[12.35427,45.38797],[12.35555,45.38834],[12.35477,45.38864],[12.35601,45.389],[12.35523,45.38931],[12.35648,45.38969],[12.35618,45.39062],[12.35698,45.39034],[12.35668,45.3913],[12.35753,45.39101],[12.3568,45.39132],[12.35906,45.39305],[12.3585,45.39388],[12.36009,45.39439],[12.35965,45.39538],[12.36063,45.39505],[12.36007,45.39594],[12.36187,45.39617],[12.36099,45.39674],[12.36254,45.39692],[12.36163,45.39739],[12.36241,45.39822],[12.36362,45.39781],[12.3625,45.39834],[12.36368,45.39987],[12.3654,45.39974],[12.36434,45.40023],[12.3651,45.40105],[12.36631,45.40054],[12.36515,45.40109],[12.36682,45.40157],[12.36592,45.40204],[12.36651,45.40283],[12.36845,45.40294],[12.3674,45.40349],[12.36941,45.40405],[12.36843,45.40463],[12.36934,45.4055],[12.37051,45.40506],[12.36981,45.40616],[12.37152,45.40612],[12.37052,45.4067],[12.37104,45.40733],[12.37266,45.40721],[12.37226,45.40831],[12.37536,45.40955],[12.37494,45.41062],[12.38316,45.41756],[12.39419,45.42553],[12.40106,45.42889],[12.41348,45.42654],[12.42707,45.41764],[12.43566,45.4218],[12.42066,45.43023],[12.41756,45.43355],[12.416,45.44087],[12.42257,45.44822],[12.43412,45.45803],[12.44559,45.47262],[12.4552,45.47493],[12.46407,45.47488],[12.46961,45.47807],[12.47715,45.48565],[12.47699,45.48837],[12.47396,45.49218],[12.47473,45.49332],[12.48026,45.49233],[12.48278,45.49385],[12.48541,45.49978],[12.48709,45.5001],[12.49298,45.49877],[12.49538,45.49714],[12.50071,45.49874],[12.50333,45.4983],[12.50844,45.50396],[12.52549,45.50295],[12.52696,45.50066],[12.53295,45.50383],[12.53343,45.50636],[12.53126,45.50882],[12.53223,45.51185],[12.53134,45.51254],[12.53864,45.51289],[12.53966,45.51067],[12.54241,45.51011],[12.54575,45.51376],[12.56319,45.52196],[12.56811,45.52538],[12.57077,45.52512],[12.5728,45.52766],[12.58012,45.52893],[12.58059,45.53192],[12.5835,45.53374],[12.58569,45.53828],[12.5927,45.54158],[12.59657,45.54523],[12.57338,45.55131],[12.55832,45.56954],[12.54827,45.578],[12.47324,45.56263],[12.46377,45.55559],[12.45654,45.55262],[12.45834,45.54659],[12.45693,45.54533],[12.43741,45.54445],[12.43649,45.54272],[12.43015,45.5432],[12.42818,45.54122],[12.41506,45.54518],[12.41359,45.54412],[12.41359,45.54232],[12.41003,45.54179],[12.40967,45.53821],[12.41119,45.53319],[12.41068,45.53211],[12.40803,45.53262],[12.40721,45.53128],[12.4041,45.53346],[12.40486,45.53592],[12.40418,45.53719],[12.40069,45.53732],[12.39346,45.54205],[12.38665,45.53989],[12.38608,45.53749],[12.38112,45.5383],[12.37841,45.53626],[12.37141,45.53446],[12.36801,45.53522],[12.36393,45.53444],[12.36435,45.53242],[12.36065,45.53183],[12.35916,45.53391],[12.35695,45.53297],[12.34926,45.53408],[12.34771,45.5329],[12.34574,45.53415],[12.34374,45.53301],[12.33302,45.53508],[12.32895,45.5328],[12.32176,45.53295],[12.32187,45.53568],[12.32438,45.53971],[12.31446,45.53897],[12.29828,45.54524],[12.29389,45.53916],[12.29133,45.53951],[12.29104,45.53761],[12.28816,45.53632],[12.28692,45.53801],[12.28733,45.54065],[12.28596,45.54173],[12.28631,45.54307],[12.28231,45.54355],[12.28037,45.53727],[12.27876,45.53734],[12.27857,45.53526],[12.27361,45.53668],[12.2714,45.53249],[12.26312,45.53435],[12.26277,45.53306],[12.26044,45.53289],[12.25953,45.53473],[12.25442,45.53166],[12.24813,45.53059],[12.24687,45.53127],[12.24649,45.53048],[12.24251,45.5319],[12.23927,45.53689],[12.23755,45.53776],[12.22801,45.53903],[12.22555,45.53763],[12.22309,45.53873],[12.2132,45.53765],[12.21095,45.54056],[12.20868,45.54123],[12.20713,45.54043],[12.20521,45.54254],[12.20371,45.54244],[12.20421,45.54842],[12.20311,45.54848],[12.20293,45.54733],[12.19919,45.54738],[12.19904,45.54578],[12.192,45.54626],[12.19179,45.55086],[12.19029,45.553],[12.18127,45.55314],[12.18146,45.54424],[12.18058,45.54261],[12.17916,45.54273],[12.1792,45.53879],[12.17712,45.53982],[12.17494,45.53679],[12.17319,45.53672],[12.16882,45.53101],[12.17835,45.52811],[12.17919,45.52917],[12.17969,45.52821],[12.18263,45.52789],[12.18278,45.52588],[12.18173,45.52561],[12.18141,45.52378],[12.18592,45.52423],[12.1862,45.52314],[12.18836,45.52321],[12.19263,45.52086],[12.19348,45.51915],[12.1982,45.5193],[12.19842,45.51778],[12.19986,45.51699],[12.19081,45.51038],[12.19184,45.5084],[12.19451,45.50777],[12.19172,45.50451],[12.18973,45.50526],[12.19201,45.50806],[12.18478,45.50751],[12.18616,45.5106],[12.18059,45.51118],[12.1798,45.51075],[12.18184,45.51021],[12.18047,45.50732],[12.17582,45.5078],[12.16688,45.49993],[12.16683,45.49988]]]}},{"type":"Feature","properties":{"name":"Milano","kind":"comune"},"geometry":{"type":"Polygon","coordinates":[[[9.04089,45.44745],[9.04169,45.44646],[9.05414,45.44471],[9.05494,45.44243],[9.05423,45.4398],[9.05523,45.43997],[9.05624,45.43808],[9.05767,45.43839],[9.06104,45.43439],[9.06318,45.43543],[9.06439,45.43321],[9.06635,45.43574],[9.06925,45.43366],[9.07054,45.43453],[9.07283,45.43386],[9.07935,45.43842],[9.07544,45.44252],[9.07849,45.44424],[9.07636,45.44823],[9.07789,45.44937],[9.07666,45.4513],[9.07786,45.45236],[9.08168,45.45087],[9.08782,45.45336],[9.09312,45.45239],[9.09544,45.449],[9.09898,45.44695],[9.10103,45.447],[9.0999,45.44859],[9.10305,45.44736],[9.10544,45.4482],[9.10671,45.45039],[9.10947,45.45103],[9.11306,45.44607],[9.11215,45.44587],[9.11351,45.44336],[9.11513,45.44377],[9.12074,45.43751],[9.12213,45.43518],[9.12125,45.43464],[9.12652,45.43026],[9.12763,45.42651],[9.13201,45.4237],[9.13224,45.42134],[9.13139,45.42072],[9.13064,45.42163],[9.13027,45.41729],[9.13304,45.41386],[9.13787,45.41542],[9.13613,45.41751],[9.13861,45.4179],[9.13936,45.41653],[9.14484,45.41836],[9.14812,45.41389],[9.15018,45.41434],[9.14958,45.41522],[9.15198,45.41633],[9.15266,45.41521],[9.15453,45.41614],[9.1555,45.41259],[9.15738,45.41236],[9.15915,45.40809],[9.15686,45.40404],[9.15802,45.40297],[9.15606,45.40169],[9.15694,45.40116],[9.1586,45.40169],[9.15812,45.40259],[9.16436,45.40355],[9.16634,45.4022],[9.16531,45.40061],[9.1668,45.40015],[9.16658,45.40103],[9.17065,45.40289],[9.17057,45.4008],[9.17362,45.40077],[9.1729,45.39456],[9.17937,45.39332],[9.18244,45.39194],[9.18208,45.39076],[9.18561,45.3899],[9.18639,45.3915],[9.19089,45.39267],[9.19098,45.38846],[9.19171,45.3889],[9.19266,45.38674],[9.19554,45.38724],[9.2018,45.39159],[9.19967,45.39471],[9.20048,45.39759],[9.20339,45.39754],[9.20509,45.39323],[9.20745,45.39261],[9.20912,45.393],[9.20922,45.39685],[9.21885,45.39747],[9.21642,45.40154],[9.21677,45.40464],[9.21883,45.40569],[9.21816,45.40728],[9.22304,45.40958],[9.22658,45.40726],[9.23753,45.40975],[9.24042,45.40834],[9.24349,45.41001],[9.24256,45.41087],[9.24394,45.41293],[9.24653,45.41213],[9.25065,45.41455],[9.24031,45.41954],[9.24691,45.42337],[9.25064,45.42244],[9.2542,45.42347],[9.25182,45.42557],[9.26365,45.43233],[9.2664,45.43504],[9.26651,45.44749],[9.26744,45.4497],[9.26519,45.45123],[9.26372,45.45536],[9.26464,45.45579],[9.26451,45.45743],[9.26949,45.45817],[9.27019,45.46056],[9.27291,45.46065],[9.27135,45.46652],[9.27154,45.46807],[9.27278,45.46813],[9.27258,45.47257],[9.26016,45.47138],[9.2603,45.47657],[9.26176,45.47654],[9.2614,45.47914],[9.2646,45.47933],[9.26477,45.48411],[9.25889,45.4845],[9.25827,45.48976],[9.2611,45.49045],[9.26203,45.49496],[9.26016,45.49987],[9.26103,45.50448],[9.27195,45.50552],[9.27125,45.50184],[9.27381,45.50183],[9.27542,45.50229],[9.2757,45.50348],[9.27756,45.5033],[9.27811,45.5052],[9.27209,45.50663],[9.27126,45.50917],[9.26876,45.50876],[9.26878,45.51034],[9.26714,45.51045],[9.26868,45.51677],[9.2685,45.5157],[9.26216,45.51543],[9.26245,45.51723],[9.26051,45.51983],[9.25915,45.51907],[9.25874,45.52012],[9.25876,45.51884],[9.25725,45.5181],[9.25522,45.51891],[9.25459,45.52039],[9.24489,45.51843],[9.24078,45.51927],[9.23436,45.51734],[9.23293,45.52123],[9.23124,45.52114],[9.23096,45.52318],[9.22087,45.52377],[9.21944,45.52612],[9.21663,45.52714],[9.21668,45.52931],[9.21352,45.52929],[9.21305,45.53012],[9.20988,45.52823],[9.20694,45.52837],[9.20706,45.52943],[9.20137,45.52858],[9.20097,45.52987],[9.20002,45.52972],[9.20026,45.52843],[9.19707,45.5271],[9.1958,45.52943],[9.19464,45.52923],[9.19524,45.52767],[9.19096,45.52801],[9.18932,45.52686],[9.18464,45.53146],[9.1842,45.53331],[9.18288,45.5343],[9.1804,45.53408],[9.1801,45.53524],[9.16771,45.53572],[9.15852,45.53342],[9.15783,45.53117],[9.15679,45.53101],[9.15693,45.52899],[9.15565,45.52878],[9.15638,45.52637],[9.15258,45.52578],[9.15261,45.52432],[9.15153,45.52413],[9.15116,45.52076],[9.15382,45.51862],[9.15154,45.5181],[9.14835,45.51863],[9.14771,45.52019],[9.14848,45.52184],[9.14561,45.52141],[9.14526,45.52275],[9.14385,45.52263],[9.14408,45.5216],[9.14131,45.52191],[9.14165,45.52059],[9.13706,45.51997],[9.13683,45.52112],[9.1348,45.52093],[9.13438,45.52286],[9.13615,45.5233],[9.13583,45.52425],[9.13007,45.52283],[9.1286,45.52514],[9.1289,45.52303],[9.12402,45.52279],[9.12361,45.52069],[9.11767,45.52159],[9.11827,45.519],[9.11281,45.52093],[9.10908,45.52397],[9.10892,45.5228],[9.10653,45.52308],[9.10299,45.52102],[9.10272,45.52355],[9.10085,45.52602],[9.09818,45.52572],[9.09673,45.52676],[9.09876,45.5272],[9.09684,45.52928],[9.09862,45.52994],[9.10113,45.52907],[9.10056,45.5313],[9.099,45.53203],[9.09556,45.52942],[9.09364,45.52946],[9.09414,45.52828],[9.09276,45.52646],[9.09637,45.52396],[9.0943,45.52283],[9.09556,45.52164],[9.0927,45.52042],[9.09877,45.50655],[9.09526,45.50741],[9.09413,45.50583],[9.09161,45.50709],[9.0901,45.49887],[9.08782,45.4978],[9.08596,45.49881],[9.08359,45.49741],[9.07468,45.49805],[9.07516,45.49908],[9.0721,45.50527],[9.07297,45.50608],[9.06583,45.5052],[9.06479,45.50459],[9.06562,45.50367],[9.06189,45.50234],[9.06032,45.50456],[9.05666,45.50544],[9.05385,45.50486],[9.05657,45.49766],[9.05814,45.49765],[9.05995,45.49426],[9.06146,45.49483],[9.06371,45.49278],[9.06392,45.49194],[9.06092,45.49154],[9.06144,45.48903],[9.06418,45.48844],[9.0626,45.49042],[9.06398,45.49038],[9.06505,45.49018],[9.06492,45.48843],[9.06659,45.48852],[9.06732,45.48673],[9.06566,45.48616],[9.06571,45.48311],[9.07525,45.47747],[9.07558,45.4751],[9.07473,45.47433],[9.07776,45.47208],[9.07288,45.47033],[9.07572,45.46345],[9.07369,45.46286],[9.0693,45.46481],[9.07446,45.45937],[9.07457,45.45734],[9.07251,45.45708],[9.07201,45.45848],[9.07013,45.4588],[9.06961,45.46109],[9.06742,45.46191],[9.06641,45.46377],[9.05369,45.46132],[9.0516,45.46189],[9.04988,45.46408],[9.04684,45.46275],[9.04464,45.46611],[9.04296,45.46547],[9.04297,45.46369],[9.04475,45.45995],[9.04602,45.46033],[9.04736,45.45825],[9.05037,45.45113],[9.04095,45.44756],[9.04089,45.44745]]]}},{"type":"Feature","properties":{"name":"Napoli","kind":"comune"},"geometry":{"type":"Polygon","coordinates":[[[14.1321,40.85606],[14.13778,40.84928],[14.1458,40.85221],[14.15392,40.8522],[14.16073,40.84637],[14.16135,40.8444],[14.1598,40.84077],[14.15295,40.83792],[14.15802,40.82865],[14.1567,40.82824],[14.15784,40.8232],[14.15943,40.8211],[14.15887,40.81699],[14.16229,40.81521],[14.16367,40.81363],[14.1629,40.81316],[14.16532,40.81251],[14.16914,40.80628],[14.16585,40.80456],[14.17145,40.80664],[14.17251,40.80588],[14.17297,40.80076],[14.17028,40.79753],[14.17419,40.79917],[14.17595,40.79672],[14.1788,40.79704],[14.17892,40.79544],[14.18163,40.79609],[14.18096,40.79398],[14.18206,40.79634],[14.18329,40.79645],[14.18579,40.79181],[14.18862,40.79283],[14.18761,40.79269],[14.18853,40.79392],[14.1926,40.79446],[14.19152,40.79472],[14.19487,40.79648],[14.19625,40.7956],[14.19895,40.79799],[14.20065,40.79738],[14.20773,40.80103],[14.20731,40.80309],[14.2071,40.80216],[14.20641,40.80311],[14.20689,40.80546],[14.20531,40.80712],[14.20627,40.80822],[14.20575,40.8092],[14.20706,40.80949],[14.20759,40.81263],[14.21073,40.81475],[14.21092,40.81652],[14.21491,40.82001],[14.21466,40.82109],[14.21718,40.82237],[14.21981,40.8221],[14.21747,40.8221],[14.22614,40.82681],[14.22157,40.82515],[14.22046,40.82646],[14.22128,40.82792],[14.22276,40.82707],[14.2217,40.82804],[14.22246,40.82853],[14.22366,40.82748],[14.22235,40.82874],[14.22589,40.83063],[14.23296,40.83208],[14.24314,40.83128],[14.24495,40.82988],[14.24782,40.82977],[14.24716,40.82831],[14.24991,40.82622],[14.25027,40.82892],[14.2514,40.8294],[14.25012,40.82903],[14.2497,40.82696],[14.24797,40.82941],[14.25039,40.82961],[14.25221,40.83318],[14.25569,40.83382],[14.25313,40.8335],[14.25202,40.83435],[14.25281,40.83505],[14.27053,40.83278],[14.27621,40.83013],[14.27237,40.83225],[14.27247,40.83318],[14.25209,40.8362],[14.2542,40.83636],[14.25561,40.83808],[14.26127,40.837],[14.2617,40.83804],[14.25715,40.83943],[14.25875,40.8414],[14.26211,40.8405],[14.25997,40.8423],[14.26222,40.8438],[14.26377,40.84194],[14.26477,40.84225],[14.26444,40.84461],[14.26641,40.8446],[14.26652,40.84325],[14.26653,40.84459],[14.26872,40.84459],[14.26932,40.84022],[14.26599,40.83968],[14.26988,40.84048],[14.26978,40.84334],[14.27218,40.84309],[14.27191,40.84078],[14.26991,40.8392],[14.27088,40.83828],[14.27394,40.8401],[14.2728,40.84085],[14.27307,40.84447],[14.27384,40.84462],[14.27792,40.84318],[14.2752,40.83995],[14.27802,40.83961],[14.27963,40.84253],[14.28188,40.84175],[14.28107,40.8392],[14.28216,40.83876],[14.28299,40.8413],[14.28505,40.84049],[14.28418,40.83792],[14.28592,40.83721],[14.28681,40.83999],[14.29019,40.83912],[14.29089,40.83832],[14.28915,40.83594],[14.29047,40.83519],[14.2923,40.83773],[14.29527,40.83615],[14.29318,40.83392],[14.29897,40.82976],[14.29981,40.8304],[14.29843,40.83142],[14.30176,40.83241],[14.29979,40.83391],[14.30335,40.83122],[14.30541,40.83169],[14.31353,40.8261],[14.31341,40.82485],[14.31483,40.82443],[14.31365,40.82514],[14.31519,40.82578],[14.31657,40.82393],[14.31832,40.82365],[14.32028,40.82077],[14.32333,40.82299],[14.31544,40.82771],[14.32352,40.82688],[14.32604,40.82807],[14.3241,40.83195],[14.32943,40.83315],[14.32842,40.83484],[14.33081,40.83568],[14.32981,40.83717],[14.34247,40.84162],[14.34015,40.84557],[14.3495,40.84782],[14.34711,40.84882],[14.34993,40.85023],[14.34891,40.85182],[14.34946,40.85291],[14.34689,40.85582],[14.35377,40.85756],[14.34962,40.86425],[14.34222,40.87109],[14.34032,40.87099],[14.33685,40.8746],[14.33334,40.87414],[14.32584,40.88028],[14.32376,40.87827],[14.32138,40.88125],[14.32057,40.87996],[14.31805,40.87973],[14.3177,40.88175],[14.30648,40.8752],[14.30694,40.87921],[14.31077,40.88126],[14.30922,40.88221],[14.30913,40.88385],[14.30151,40.88784],[14.30221,40.89014],[14.29373,40.89351],[14.28949,40.8992],[14.28646,40.89645],[14.28414,40.89789],[14.27835,40.89026],[14.27017,40.89143],[14.27028,40.89357],[14.26762,40.89648],[14.26961,40.89824],[14.26911,40.90208],[14.26467,40.90115],[14.26044,40.90584],[14.25473,40.90582],[14.2553,40.90965],[14.2518,40.90976],[14.25178,40.90823],[14.25083,40.90821],[14.25036,40.9105],[14.24883,40.9112],[14.25,40.91119],[14.25021,40.91363],[14.25207,40.91417],[14.24792,40.91441],[14.24787,40.91612],[14.24638,40.91607],[14.2466,40.91458],[14.2439,40.91304],[14.24085,40.9132],[14.24029,40.91188],[14.23767,40.91422],[14.23771,40.90509],[14.23389,40.90537],[14.23313,40.90751],[14.23078,40.9092],[14.22584,40.90959],[14.22525,40.90319],[14.22354,40.89954],[14.20919,40.89882],[14.20398,40.89713],[14.20225,40.89455],[14.2045,40.89033],[14.2022,40.88867],[14.2024,40.88536],[14.19301,40.88275],[14.18994,40.87958],[14.1851,40.87882],[14.18844,40.87067],[14.18527,40.87058],[14.18273,40.87174],[14.18192,40.87349],[14.1767,40.8745],[14.16684,40.87275],[14.16361,40.87014],[14.1594,40.86914],[14.15647,40.86704],[14.15548,40.86797],[14.15297,40.8666],[14.14842,40.86764],[14.1475,40.86877],[14.14526,40.86766],[14.14472,40.8683],[14.1406,40.86707],[14.14127,40.86615],[14.13772,40.86228],[14.13812,40.85939],[14.1368,40.8578],[14.13775,40.85539],[14.13245,40.85685],[14.1321,40.85606]]]}}]}