{"type":"FeatureCollection","features":[{"type":"Feature","properties":{"name":"Italia","kind":"paese"},"geometry":{"type":"MultiPolygon","coordinates":[[[[6.62727,45.1068],[6.64565,45.07534],[6.66324,45.07212],[6.65868,45.05254],[6.66987,45.04421],[6.66394,45.03399],[6.6734,45.01976],[6.74827,45.01617],[6.75131,44.99756],[6.73789,44.98934],[6.76533,44.96213],[6.74381,44.93676],[6.76077,44.93355],[6.74848,44.92213],[6.75121,44.90615],[6.77098,44.9037],[6.78487,44.88827],[6.80172,44.89105],[6.80764,44.87583],[6.86357,44.8505],[6.9068,44.84328],[6.93142,44.86445],[7.00121,44.84218],[7.01012,44.82601],[7.02508,44.82311],[6.99957,44.7897],[7.02159,44.7714],[7.02844,44.72968],[7.06578,44.7136],[7.07713,44.68092],[7.02373,44.6913],[6.98711,44.69008],[6.96295,44.67822],[6.94793,44.65386],[6.96795,44.61955],[6.9502,44.61989],[6.93799,44.60374],[6.93287,44.57307],[6.91277,44.56911],[6.91656,44.56153],[6.90382,44.55548],[6.88001,44.5553],[6.85451,44.52886],[6.8767,44.48127],[6.90617,44.46766],[6.91189,44.45121],[6.94808,44.4297],[6.89294,44.42097],[6.89712,44.37556],[6.88734,44.36142],[6.92186,44.35166],[6.92669,44.33297],[6.96015,44.31145],[6.9576,44.2953],[6.99608,44.28008],[6.99667,44.25191],[7.00851,44.23524],[7.0382,44.22375],[7.0768,44.23221],[7.1431,44.20023],[7.16273,44.20801],[7.17765,44.19725],[7.18833,44.20076],[7.21885,44.16865],[7.24177,44.17298],[7.24886,44.15806],[7.28029,44.14096],[7.34463,44.14521],[7.35839,44.11604],[7.39302,44.12528],[7.42587,44.11232],[7.42977,44.13023],[7.45955,44.12654],[7.50699,44.1444],[7.52131,44.13762],[7.5642,44.15551],[7.61986,44.14951],[7.63607,44.1771],[7.68448,44.17396],[7.66643,44.13075],[7.71898,44.08245],[7.71424,44.06151],[7.70049,44.0407],[7.66253,44.02884],[7.67052,43.99841],[7.65263,43.97386],[7.61126,43.95413],[7.56934,43.94756],[7.57111,43.92833],[7.55811,43.9173],[7.56156,43.89899],[7.51183,43.88558],[7.4955,43.86435],[7.52992,43.78841],[7.53885,43.74382],[7.61032,43.65593],[7.63102,43.57859],[7.73278,43.57817],[7.92582,43.62445],[8.06792,43.66294],[8.24981,43.73288],[8.39901,43.83184],[8.46231,43.90861],[8.64939,44.0722],[8.71063,44.16013],[8.75082,44.18781],[8.87542,44.18621],[9.00554,44.14423],[9.11049,44.09738],[9.28544,44.0634],[9.70961,43.84693],[9.77696,43.82618],[9.86719,43.81889],[9.94279,43.70377],[9.72835,43.59817],[9.65579,43.53909],[9.61727,43.46821],[9.559,43.19295],[9.5891,43.17561],[9.64175,42.955],[9.65787,42.92035],[9.71666,42.84862],[9.76448,42.80851],[9.75663,42.75195],[9.73324,42.70362],[9.78253,42.63238],[9.81474,42.43861],[9.80194,42.36953],[9.82656,42.26686],[9.86783,42.22487],[9.91983,42.19016],[9.99985,42.16369],[10.27829,42.11164],[10.84902,42.11255],[11.01648,42.04584],[11.60519,41.92144],[12.03283,41.59898],[12.0944,41.56672],[12.21713,41.52215],[12.27668,41.47437],[12.37699,41.36838],[12.57897,40.92275],[12.59512,40.84991],[12.62736,40.80289],[12.68821,40.75558],[12.85571,40.68762],[13.02264,40.64661],[13.78342,40.50331],[14.06477,40.35948],[14.74984,40.08369],[15.13712,39.84905],[15.33198,39.79323],[15.53837,39.6951],[15.55127,39.63484],[15.5913,39.57066],[15.63608,39.46702],[15.67068,39.42282],[15.76234,39.34315],[15.79505,39.25032],[15.80047,39.11261],[15.83096,39.03997],[15.76003,38.85767],[15.66509,38.80633],[15.59802,38.72795],[15.52576,38.50476],[15.27232,38.47716],[15.32938,38.52435],[15.35982,38.57167],[15.37182,38.61037],[15.43079,38.65344],[15.48538,38.72591],[15.50786,38.77592],[15.51307,38.82967],[15.5006,38.88178],[15.48009,38.91823],[15.414,38.97837],[15.32101,39.01529],[15.21971,39.02116],[15.10123,38.9954],[15.01833,38.94935],[14.95614,38.88675],[14.92955,38.8192],[14.87608,38.78651],[14.77414,38.78467],[14.69016,38.76442],[14.61129,38.7851],[14.53015,38.78973],[14.45368,38.78074],[14.38446,38.75715],[14.27791,38.75007],[14.21546,38.72964],[14.16193,38.69723],[14.12404,38.66085],[14.09442,38.61322],[14.08058,38.5407],[14.09651,38.46901],[14.14802,38.39973],[14.21676,38.35629],[14.279,38.33614],[14.35459,38.32832],[14.42491,38.33556],[14.49771,38.36106],[14.58642,38.35086],[14.68335,38.36066],[14.0195,38.2472],[13.63613,38.30402],[13.44349,38.40035],[13.34778,38.42488],[13.28044,38.42417],[13.07627,38.39283],[12.80934,38.38299],[12.69125,38.38893],[12.59672,38.36191],[12.41146,38.24723],[12.28595,38.21874],[11.99019,38.1911],[11.92592,38.17593],[11.84427,38.13003],[11.81354,38.09855],[11.78577,38.05037],[11.77474,37.99816],[11.78116,37.94546],[11.80979,37.87366],[11.85589,37.81864],[11.92176,37.77825],[12.22277,37.65538],[12.25229,37.59933],[12.31069,37.53904],[12.51275,37.40072],[12.59822,37.36502],[12.92922,37.30302],[13.18975,37.18894],[13.53384,37.01009],[13.7548,36.92191],[14.38606,36.6023],[14.63752,36.52092],[15.04371,36.4416],[15.10923,36.4412],[15.17267,36.45448],[15.2555,36.48761],[15.31043,36.5211],[15.37803,36.59188],[15.57083,36.92103],[15.58874,36.97202],[15.58711,37.03812],[15.55196,37.11936],[15.44013,37.56976],[15.46141,37.63844],[15.54714,37.77814],[15.67172,37.72675],[15.77144,37.71264],[15.89686,37.72228],[15.99388,37.71271],[16.09173,37.72106],[16.16752,37.73817],[16.23122,37.76962],[16.29105,37.81912],[16.66378,38.20436],[17.39432,38.84964],[17.45037,38.94862],[17.46864,39.02019],[17.46201,39.07298],[17.41231,39.22968],[17.41385,39.26221],[18.51909,39.62604],[18.56973,39.66181],[18.62929,39.73059],[18.77194,40.04506],[18.78421,40.09723],[18.77609,40.17758],[18.66877,40.37838],[18.61886,40.43257],[18.40574,40.60468],[18.23005,40.76925],[18.17424,40.81016],[18.04849,40.86942],[17.89991,40.90528],[17.79498,40.95149],[17.65177,40.99189],[17.53818,41.06178],[17.46221,41.12322],[17.32133,41.20043],[17.21419,41.24544],[17.05703,41.29093],[16.9591,41.33468],[16.71677,41.39216],[16.53846,41.46727],[16.46933,41.78102],[16.47144,41.83648],[16.45423,41.923],[16.42485,41.98539],[16.37008,42.0374],[16.23455,42.11119],[16.13597,42.14373],[16.04499,42.15193],[16.00708,42.16579],[16.01775,42.25318],[15.999,42.30036],[15.96666,42.34585],[15.91227,42.3844],[15.82372,42.41877],[15.69278,42.42094],[15.60892,42.39945],[15.52842,42.34024],[15.42837,42.33209],[15.0564,42.23409],[14.86588,42.34511],[14.72651,42.38815],[14.61343,42.49975],[14.46407,42.57947],[14.39096,42.62968],[14.31191,42.7046],[14.25346,42.78376],[14.20549,42.86752],[14.18635,42.94532],[14.13526,43.05516],[14.1052,43.16718],[14.03428,43.31415],[13.96177,43.42737],[13.90576,43.54152],[13.88943,43.61545],[13.84595,43.67352],[13.71864,43.76976],[13.64593,43.80636],[13.56018,43.829],[13.48142,43.83256],[13.44088,43.84858],[13.05781,44.09681],[12.91416,44.14932],[12.8332,44.16692],[12.78331,44.22172],[12.69664,44.26789],[12.62735,44.32944],[12.57328,44.48964],[12.5662,44.57497],[12.79664,44.86064],[12.8238,44.90991],[12.86035,45.35167],[13.04597,45.43211],[13.1291,45.43211],[13.18171,45.44193],[13.21254,45.45835],[13.3121,45.54617],[13.62873,45.63154],[13.71872,45.59472],[13.74692,45.59792],[13.81011,45.5809],[13.85112,45.58469],[13.86905,45.60934],[13.9183,45.6312],[13.83364,45.68709],[13.83392,45.70718],[13.79441,45.74409],[13.73555,45.75958],[13.66936,45.7997],[13.62406,45.79605],[13.59587,45.80812],[13.57517,45.8535],[13.59326,45.87468],[13.5865,45.88192],[13.59305,45.89141],[13.638,45.93517],[13.63286,45.94927],[13.64298,45.98289],[13.59076,45.99009],[13.56851,45.96872],[13.53059,45.96625],[13.47616,46.00608],[13.49693,46.01647],[13.50865,46.03495],[13.49651,46.0585],[13.57277,46.08846],[13.64395,46.13721],[13.66424,46.17797],[13.63361,46.19178],[13.56699,46.18576],[13.56192,46.20422],[13.52907,46.2189],[13.44601,46.22578],[13.44626,46.21273],[13.41144,46.2118],[13.41135,46.22738],[13.42286,46.23453],[13.40565,46.24384],[13.39242,46.28244],[13.37547,46.2977],[13.41766,46.30552],[13.41595,46.31663],[13.44826,46.33113],[13.43875,46.36001],[13.46975,46.36103],[13.56554,46.39797],[13.57792,46.40871],[13.58237,46.43115],[13.59775,46.43938],[13.64904,46.44671],[13.65467,46.43947],[13.68926,46.43998],[13.69883,46.4568],[13.69365,46.46788],[13.71015,46.48179],[13.7025,46.49875],[13.7166,46.50676],[13.71408,46.52299],[13.68041,46.52169],[13.59738,46.54569],[13.57092,46.53885],[13.56095,46.55189],[13.51989,46.54691],[13.50425,46.56631],[13.42658,46.5576],[13.4075,46.5615],[13.40986,46.57206],[13.37224,46.57928],[13.37049,46.56699],[13.34472,46.57],[13.32057,46.55123],[13.26947,46.56126],[13.23979,46.5517],[13.21735,46.5705],[13.19323,46.57235],[13.1686,46.5889],[13.08374,46.60205],[13.04662,46.5953],[12.94889,46.60225],[12.92788,46.61056],[12.85271,46.60461],[12.83368,46.60989],[12.83127,46.6313],[12.81899,46.62818],[12.78437,46.64501],[12.75642,46.64719],[12.7314,46.6343],[12.69064,46.65698],[12.64172,46.652],[12.61922,46.66187],[12.56515,46.65177],[12.51601,46.67861],[12.48128,46.67701],[12.47376,46.68677],[12.44249,46.6885],[12.3791,46.72045],[12.35744,46.77497],[12.28378,46.78308],[12.28026,46.79192],[12.29226,46.80264],[12.28293,46.81494],[12.30677,46.84125],[12.29564,46.84376],[12.29186,46.8652],[12.27589,46.87268],[12.27371,46.88439],[12.24182,46.89085],[12.21542,46.87401],[12.19036,46.90612],[12.14382,46.91378],[12.16869,46.9373],[12.13193,46.96232],[12.1382,46.98199],[12.12752,46.98552],[12.12135,47.00701],[12.14742,47.0249],[12.16437,47.0189],[12.20473,47.02688],[12.21657,47.05869],[12.24076,47.06917],[12.22696,47.08212],[12.18597,47.09215],[12.11893,47.07323],[12.09383,47.07696],[12.07667,47.05889],[12.04409,47.06144],[12.02127,47.04727],[11.97938,47.05004],[11.9472,47.03347],[11.91669,47.03318],[11.83621,46.99301],[11.78179,46.99246],[11.76559,46.97353],[11.74703,46.96887],[11.72768,46.97238],[11.71147,46.99324],[11.66469,46.99175],[11.62721,47.0133],[11.53854,46.98408],[11.51263,47.00514],[11.47878,47.01098],[11.44031,46.97518],[11.40561,46.96482],[11.38226,46.97058],[11.35867,46.99056],[11.33701,46.98488],[11.31966,46.99234],[11.20704,46.96248],[11.1953,46.97045],[11.16445,46.96582],[11.16402,46.93985],[11.13882,46.92751],[11.11212,46.92927],[11.10928,46.91599],[11.09535,46.91037],[11.1015,46.8894],[11.07191,46.85621],[11.07033,46.83837],[11.08333,46.82229],[11.03928,46.80503],[11.04421,46.80091],[11.02225,46.76542],[10.92326,46.77535],[10.88269,46.76286],[10.84066,46.7818],[10.81411,46.77513],[10.78633,46.79631],[10.75745,46.78518],[10.73034,46.78834],[10.7261,46.79786],[10.76353,46.82347],[10.69412,46.85215],[10.69677,46.86263],[10.66739,46.8755],[10.54619,46.83727],[10.5553,46.8486],[10.46965,46.85491],[10.45059,46.80405],[10.42272,46.78824],[10.4417,46.77179],[10.44216,46.75273],[10.40081,46.73384],[10.41877,46.71914],[10.41604,46.70902],[10.38182,46.68431],[10.40229,46.63681],[10.44608,46.64127],[10.49206,46.61539],[10.47147,46.5427],[10.4528,46.53068],[10.41824,46.55131],[10.39704,46.54392],[10.35187,46.55588],[10.33819,46.54273],[10.32547,46.55173],[10.29607,46.54997],[10.28742,46.5704],[10.24607,46.57501],[10.24184,46.5916],[10.25908,46.61022],[10.23931,46.63535],[10.21532,46.61694],[10.19277,46.62593],[10.12762,46.6051],[10.10235,46.61074],[10.10068,46.58272],[10.07867,46.57512],[10.08233,46.56349],[10.04389,46.54047],[10.05399,46.52267],[10.04227,46.51005],[10.04909,46.4996],[10.04283,46.48003],[10.05446,46.46466],[10.04191,46.44286],[10.08017,46.42109],[10.14301,46.42832],[10.14767,46.41422],[10.16673,46.40759],[10.16202,46.38751],[10.12766,46.37774],[10.12912,46.36088],[10.10845,46.35233],[10.10596,46.34218],[10.11661,46.31408],[10.15428,46.29278],[10.17652,46.25828],[10.13232,46.22488],[10.09468,46.22859],[10.07037,46.21717],[10.04381,46.22972],[10.06065,46.24826],[10.05554,46.26584],[9.99593,46.28492],[10.00007,46.31319],[9.97994,46.32313],[9.99638,46.35114],[9.96452,46.36376],[9.95796,46.37894],[9.92518,46.36598],[9.9068,46.38088],[9.86821,46.36236],[9.83267,46.36097],[9.77687,46.33482],[9.73693,46.35092],[9.72296,46.34075],[9.72752,46.33269],[9.71736,46.32352],[9.726,46.31351],[9.70975,46.29191],[9.67697,46.30313],[9.63498,46.28612],[9.54958,46.30234],[9.51849,46.3271],[9.49641,46.36432],[9.46109,46.37599],[9.46901,46.38863],[9.45444,46.42078],[9.46559,46.4695],[9.46287,46.4805],[9.4491,46.48438],[9.46104,46.48484],[9.46356,46.50887],[9.43419,46.49791],[9.41166,46.46692],[9.37636,46.48466],[9.36849,46.49409],[9.37336,46.50394],[9.36369,46.50931],[9.28225,46.49647],[9.27421,46.48369],[9.27818,46.4617],[9.247,46.44679],[9.24819,46.43323],[9.28025,46.41416],[9.27584,46.39489],[9.28437,46.38508],[9.27607,46.36777],[9.29629,46.35558],[9.29987,46.3436],[9.29212,46.3362],[9.29936,46.32754],[9.28157,46.30936],[9.28488,46.29705],[9.25047,46.26651],[9.24842,46.23377],[9.22096,46.2291],[9.2189,46.21443],[9.2022,46.20841],[9.19465,46.1792],[9.18341,46.1702],[9.16122,46.17072],[9.1215,46.13481],[9.0725,46.1181],[9.08962,46.08702],[9.0783,46.06532],[9.02267,46.05269],[9.00952,46.03729],[9.02846,45.99363],[8.98899,45.97034],[9.01396,45.96055],[9.01936,45.92837],[9.0599,45.92094],[9.07658,45.91142],[9.07693,45.8993],[9.089,45.90065],[9.05479,45.87355],[9.03446,45.82302],[9.01733,45.81796],[8.99375,45.82202],[8.99749,45.83494],[8.96998,45.83235],[8.95624,45.84338],[8.91215,45.83044],[8.91423,45.84223],[8.9453,45.86698],[8.93377,45.87033],[8.91429,45.9178],[8.89331,45.93118],[8.89366,45.95898],[8.8683,45.96062],[8.83132,45.98802],[8.78588,45.98908],[8.79309,46.0081],[8.83547,46.04379],[8.82849,46.04653],[8.84418,46.04851],[8.85459,46.06158],[8.85211,46.07564],[8.80604,46.10128],[8.78303,46.09417],[8.76002,46.10157],[8.74234,46.12231],[8.71399,46.09723],[8.65771,46.11269],[8.64758,46.12349],[8.61184,46.12166],[8.59273,46.14286],[8.60318,46.15533],[8.57364,46.16431],[8.5637,46.18395],[8.54048,46.19781],[8.53244,46.21828],[8.47024,46.23232],[8.46411,46.24455],[8.44453,46.24888],[8.45588,46.26376],[8.42774,46.2983],[8.46542,46.33392],[8.46156,46.35326],[8.47023,46.36255],[8.46084,46.38668],[8.47117,46.39592],[8.45687,46.42318],[8.46594,46.44437],[8.43853,46.4643],[8.36694,46.45192],[8.32544,46.42571],[8.30377,46.42334],[8.28893,46.40811],[8.31573,46.39897],[8.3129,46.37707],[8.26377,46.36402],[8.26288,46.34597],[8.224,46.33445],[8.21201,46.30928],[8.1789,46.29739],[8.13738,46.30171],[8.08593,46.26662],[8.08261,46.25654],[8.11015,46.2495],[8.11533,46.236],[8.13888,46.22615],[8.16551,46.18223],[8.14988,46.1625],[8.15534,46.14763],[8.11542,46.13035],[8.10823,46.11163],[8.03476,46.10084],[8.02166,46.06937],[8.03541,46.04404],[8.01189,46.03121],[8.01241,46.01197],[8.00108,46.01221],[7.98909,45.99593],[7.90868,45.99694],[7.87742,45.97386],[7.87213,45.91978],[7.82039,45.92696],[7.79952,45.91713],[7.74775,45.94101],[7.73509,45.92397],[7.72123,45.92363],[7.70732,45.93489],[7.70988,45.94809],[7.68102,45.957],[7.66427,45.97566],[7.58863,45.9705],[7.57861,45.98601],[7.55013,45.98656],[7.54272,45.95696],[7.49919,45.96242],[7.47138,45.94719],[7.47473,45.93584],[7.44437,45.9316],[7.38633,45.89715],[7.3443,45.91524],[7.3239,45.91021],[7.29443,45.92182],[7.25683,45.88816],[7.21638,45.8888],[7.19649,45.86026],[7.17532,45.8629],[7.15354,45.87925],[7.10881,45.85819],[7.0642,45.90008],[7.06057,45.91339],[7.04071,45.92302],[7.00378,45.8995],[6.99907,45.87352],[6.95181,45.86168],[6.94161,45.84764],[6.9132,45.8406],[6.88175,45.84982],[6.86517,45.83271],[6.84347,45.84258],[6.81824,45.83594],[6.80669,45.81811],[6.81605,45.81065],[6.81447,45.79478],[6.80153,45.78143],[6.80558,45.74771],[6.81702,45.74005],[6.80863,45.72507],[6.85714,45.68499],[6.89318,45.67551],[6.90323,45.68062],[6.90219,45.66384],[6.91544,45.66095],[6.91646,45.65103],[6.93073,45.64573],[6.9702,45.65423],[7.00097,45.63977],[6.98457,45.62016],[6.97799,45.58821],[6.99526,45.5757],[6.99088,45.53201],[7.0052,45.51737],[6.99984,45.505],[7.0543,45.49465],[7.04867,45.47242],[7.10396,45.46785],[7.09864,45.4585],[7.11459,45.43308],[7.18575,45.40322],[7.16272,45.3815],[7.16373,45.36053],[7.13368,45.34721],[7.1347,45.33119],[7.1094,45.32771],[7.13532,45.28258],[7.1293,45.27126],[7.13748,45.25637],[7.08087,45.22435],[7.07995,45.21296],[7.06756,45.20999],[7.04722,45.22573],[6.96577,45.20788],[6.96729,45.19589],[6.95387,45.1908],[6.94725,45.17043],[6.8916,45.16702],[6.88414,45.15677],[6.89783,45.14275],[6.89237,45.13684],[6.8478,45.12733],[6.84724,45.13554],[6.76824,45.15977],[6.74015,45.13667],[6.71142,45.14484],[6.68042,45.1403],[6.67261,45.12445],[6.62807,45.10797],[6.62727,45.1068]]],[[[7.86661,40.72865],[7.87485,40.57304],[7.90485,40.49127],[8.09948,40.28872],[8.02209,39.99326],[8.02067,39.84006],[8.04665,39.78708],[8.09222,39.73976],[8.16521,39.68598],[8.1188,39.48834],[8.11439,39.42969],[7.96681,39.22253],[7.94991,39.17128],[7.95064,39.11837],[7.97608,39.05539],[8.21473,38.72377],[8.29519,38.67608],[8.39274,38.65606],[8.66332,38.66113],[8.9227,38.67919],[9.01785,38.71619],[9.1668,38.81599],[9.58636,38.88193],[9.6537,38.89985],[9.7104,38.92882],[9.82069,39.01812],[9.85142,39.06533],[9.86696,39.11394],[9.95866,39.82319],[10.05823,40.40405],[10.0867,40.47086],[10.09484,40.53824],[10.01516,40.77991],[10.04579,40.85932],[10.04215,40.91225],[10.02759,40.95048],[9.96272,41.03841],[9.90119,41.09818],[9.84473,41.19699],[9.784,41.25373],[9.74418,41.32969],[9.65815,41.39289],[9.63096,41.43366],[9.45003,41.40647],[9.3165,41.33614],[9.26983,41.29181],[9.13486,41.31814],[8.81268,41.25764],[8.78914,41.23239],[8.49529,41.27345],[8.4359,41.30319],[8.35181,41.32199],[8.27879,41.32138],[8.19508,41.30167],[8.08261,41.24562],[7.97949,41.12927],[7.90942,40.9767],[7.86697,40.74192],[7.86661,40.72865]]]]}},{"type":"Feature","properties":{"name":"Citt\u00e0 del Vaticano","kind":"paese"},"geometry":{"type":"Polygon","coordinates":[[[12.445788,41.901967],[12.446547,41.901641],[12.446723,41.901798],[12.447973,41.901002],[12.447792,41.90085],[12.44795,41.900692],[12.448775,41.900817],[12.448775,41.900999],[12.450868,41.900827],[12.450839,41.900586],[12.451806,41.900356],[12.452791,41.900285],[12.452835,41.900491],[12.454515,41.900205],[12.454325,41.901403],[12.456263,41.901673],[12.456799,41.901259],[12.457554,41.901198],[12.458277,41.901655],[12.458365,41.902257],[12.458194,41.902871],[12.457554,41.903253],[12.456746,41.903189],[12.456184,41.902756],[12.456682,41.903203],[12.457558,41.903332],[12.457657,41.905821],[12.455658,41.906297],[12.4554,41.907383],[12.453829,41.906981],[12.453883,41.906801],[12.451435,41.906372],[12.451371,41.906575],[12.450515,41.906486],[12.450323,41.905988],[12.450518,41.905839],[12.449451,41.90504],[12.448941,41.905044],[12.448889,41.904727],[12.449105,41.904678],[12.448648,41.90361],[12.448387,41.903705],[12.447907,41.903418],[12.447642,41.903124],[12.447856,41.902991],[12.446874,41.902188],[12.446625,41.902352],[12.445788,41.901967]]]}},{"type":"Feature","properties":{"name":"San Marino","kind":"paese"},"geometry":{"type":"Polygon","coordinates":[[[12.402433,43.95328],[12.405116,43.948154],[12.404703,43.945565],[12.405277,43.942306],[12.412354,43.937558],[12.411962,43.93613],[12.414915,43.932243],[12.415288,43.930595],[12.414725,43.928398],[12.409778,43.92502],[12.408938,43.922337],[12.407571,43.921488],[12.408114,43.919852],[12.409135,43.919034],[12.412503,43.909404],[12.408847,43.903197],[12.408807,43.902183],[12.410444,43.901496],[12.411221,43.900339],[12.416554,43.900297],[12.423205,43.901328],[12.424901,43.903056],[12.427734,43.904255],[12.427678,43.903296],[12.428858,43.903401],[12.429827,43.901985],[12.432611,43.901364],[12.433741,43.901842],[12.434722,43.903295],[12.437552,43.903136],[12.438232,43.903462],[12.437737,43.90419],[12.438492,43.904702],[12.440447,43.905963],[12.442024,43.906135],[12.443241,43.905663],[12.444133,43.904052],[12.447979,43.902428],[12.448828,43.899954],[12.447917,43.899307],[12.449448,43.898539],[12.449257,43.897599],[12.450648,43.89609],[12.455005,43.893928],[12.457596,43.893633],[12.460217,43.894558],[12.462394,43.893771],[12.462965,43.894758],[12.463816,43.894377],[12.466518,43.895716],[12.467697,43.895326],[12.469391,43.895786],[12.469914,43.89754],[12.470705,43.896119],[12.475407,43.896932],[12.487404,43.896469],[12.4896,43.902554],[12.492073,43.905084],[12.492975,43.90767],[12.495569,43.90933],[12.493318,43.910137],[12.493448,43.915373],[12.492442,43.916626],[12.492935,43.918449],[12.497393,43.922816],[12.503269,43.923639],[12.504995,43.929801],[12.507284,43.931863],[12.507749,43.933774],[12.50953,43.934354],[12.512365,43.937651],[12.516959,43.940854],[12.515979,43.941515],[12.515876,43.944185],[12.512846,43.951037],[12.506369,43.95808],[12.509267,43.962707],[12.507513,43.964463],[12.507201,43.968884],[12.505934,43.971101],[12.510015,43.971617],[12.512318,43.972822],[12.511322,43.97786],[12.510015,43.980925],[12.512445,43.983907],[12.51593,43.984597],[12.515072,43.989509],[12.513421,43.99132],[12.509868,43.990903],[12.509336,43.991333],[12.509566,43.992042],[12.50584,43.990637],[12.504541,43.991127],[12.503587,43.990684],[12.504569,43.990302],[12.502071,43.986785],[12.500297,43.986702],[12.499132,43.985751],[12.49832,43.986339],[12.49611,43.986286],[12.492455,43.982771],[12.490179,43.983281],[12.485483,43.981409],[12.477835,43.980457],[12.46979,43.977695],[12.459548,43.972446],[12.458097,43.972413],[12.452576,43.968731],[12.451886,43.969158],[12.448736,43.965882],[12.447439,43.96627],[12.446473,43.965762],[12.44245,43.961569],[12.439714,43.960562],[12.440012,43.959991],[12.436522,43.956634],[12.419631,43.957887],[12.419671,43.957139],[12.415922,43.952812],[12.414412,43.95324],[12.411554,43.952492],[12.405262,43.954622],[12.404269,43.955873],[12.402573,43.953488],[12.402433,43.95328]]]}}]}